[{"OBJECT_NAME":"TERRASAR-X","OBJECT_ID":"2007-026A","EPOCH":"2026-03-09T12:47:32.153856","MEAN_MOTION":15.19145495,"ECCENTRICITY":0.0001671,"INCLINATION":97.4473,"RA_OF_ASC_NODE":77.6567,"ARG_OF_PERICENTER":89.1735,"MEAN_ANOMALY":270.9691,"EPHEMERIS_TYPE":0,"CLASSIFICATION_TYPE":"U","NORAD_CAT_ID":31698,"ELEMENT_SET_NO":999,"REV_AT_EPOCH":3809,"BSTAR":0.00011254,"MEAN_MOTION_DOT":2.297e-5,"MEAN_MOTION_DDOT":0},{"OBJECT_NAME":"STARLINK-1582","OBJECT_ID":"2020-055S","EPOCH":"2026-03-10T00:00:02.999808","MEAN_MOTION":15.18040785,"ECCENTRICITY":8.421e-5,"INCLINATION":53.1034,"RA_OF_ASC_NODE":124.9627,"ARG_OF_PERICENTER":51.2921,"MEAN_ANOMALY":325.0096,"EPHEMERIS_TYPE":0,"CLASSIFICATION_TYPE":"U","NORAD_CAT_ID":46043,"ELEMENT_SET_NO":999,"REV_AT_EPOCH":574,"BSTAR":0.064748428,"MEAN_MOTION_DOT":0.01459793,"MEAN_MOTION_DDOT":0}]
